EUTELSAT 8 WEST B       
1 40875U 15039B   26015.37128495 -.00000047  00000+0  00000+0 0  9995
2 40875   0.0641 354.6880 0004235 298.0680 307.7504  1.00272580 38123
EUTELSAT 9B             
1 41310U 16005A   26015.37466498  .00000080  00000+0  00000+0 0  9998
2 41310   0.0323  58.8408 0004331 232.8396 326.9952  1.00271537 36580
EUTELSAT 65 WEST A      
1 41382U 16014A   26015.52019905 -.00000257  00000+0  00000+0 0  9998
2 41382   0.0927 298.2603 0002101   5.4581 293.2910  1.00269201 36001
EUTELSAT 117 WEST B     
1 41589U 16038B   26015.45870145  .00000007  00000+0  00000+0 0  9998
2 41589   0.0075 115.6424 0000335 177.0739 230.3172  1.00272359 35138
EUTELSAT 172B           
1 42741U 17029B   26015.45461463  .00000013  00000+0  00000+0 0  9996
2 42741   0.0305 123.2679 0000217 308.9013  18.3773  1.00271464 32203
EUTELSAT 7C             
1 44334U 19034B   26015.30290456  .00000067  00000+0  00000+0 0  9999
2 44334   0.0770 182.9186 0003025  97.6587 310.2072  1.00271316  5305
EUTELSAT 5 WEST B       
1 44624U 19067A   26015.30056453 -.00000023  00000+0  00000+0 0  9997
2 44624   0.0887 312.9753 0002999 346.8348 278.1387  1.00272556 22907
EUTELSAT KONNECT        
1 45027U 20005B   26015.37431832  .00000068  00000+0  00000+0 0  9992
2 45027   0.0685  93.9915 0001073 190.0574 332.7195  1.00272038 22807
